TEVEL2-8                
1 63239U 25052AF  26068.66815442  .00019130  00000+0  69304-3 0  9993
2 63239  97.4055 324.2923 0008031 124.9191 235.2804 15.28392908 54807
STARLINK-34048          
1 63816U 25092N   26068.31506782  .00024390  00000+0  89272-3 0  9994
2 63816  42.9972 174.9792 0000770 251.6672 108.4096 15.27586411 48607
